5D/Brorsen,e,18.6308,94.9066,20.3029,3.158454,0.1755870,0.83787641,140.0582,06/23.0/2025,2000,g 10.5,6.0
# From MPEC 2022-WD2
6P/d'Arrest,e,19.4999,138.9508,178.0508,3.497684,0.1506722,0.61192710,207.2732,06/23.0/2025,2000,g  7.5,16.0
# From MPEC 2023-A50
7P/Pons-Winnecke,e,22.5935,93.2826,172.5535,3.389363,0.1579526,0.64813970,233.9232,06/23.0/2025,2000,g 10.0,6.0
# From MPEC 2022-HC2
8P/Tuttle,e,54.9841,270.1770,207.4759,5.705443,0.0723219,0.82070068,100.8457,06/23.0/2025,2000,g  8.0,8.0
# From MPEC 2024-YC7
9P/Tempel,e,10.6584,67.3151,184.4553,3.287213,0.1653721,0.47303312,201.6200,06/23.0/2025,2000,g  5.5,10.0
# From MPC184415
10P/Tempel,e,12.0274,117.8006,195.4922,3.063877,0.1837795,0.53738289,285.5418,06/23.0/2025,2000,g  5.0,10.0
# From MPEC 2024-R10
11P/Tempel-Swift-LINEAR,e,14.4328,238.8629,168.0500,3.283208,0.1656748,0.57744986,276.3564,06/23.0/2025,2000,g 17.0,4.0
# From MPC184415
12P/Pons-Brooks,e,74.1893,255.8567,199.0078,17.23073,0.0137800,0.95466662,5.8959,06/23.0/2025,2000,g  5.0,6.0
# From MPC184415
13P/Olbers,e,44.6658,85.8467,64.4224,16.90818,0.0141762,0.93048042,5.0740,06/23.0/2025,2000,g  5.0,6.0
# From MPC184415
14P/Wolf,e,27.9181,202.0235,159.1942,4.256512,0.1122337,0.35667305,309.1581,06/23.0/2025,2000,g  5.5,12.0
# From MPEC 2022-ED3
15P/Finlay,e,6.7872,13.7488,347.8657,3.510942,0.1498196,0.71611196,215.9087,06/23.0/2025,2000,g 12.0,4.0
# From MPEC 2022-X67
16P/Brooks,e,3.0099,138.8255,245.3740,3.662093,0.1406404,0.48561909,214.7304,06/23.0/2025,2000,g  7.5,10.0
# From MPEC 2023-J29
17P/Holmes,e,19.0068,326.6085,24.6146,3.641548,0.1418322,0.42631787,224.8739,06/23.0/2025,2000,g 10.0,6.0
# From  19, 80
18D/Perrine-Mrkos,e,17.660,158.451,238.207,3.88094,0.128914,0.5895248,38.397,06/23.0/2025,2000,g  9.0,4.0
# From MPEC 2024-YC7
19P/Borrelly,e,29.3155,74.2152,352.0073,3.608446,0.1437884,0.63777402,177.8180,06/23.0/2025,2000,g  4.5,10.0
# From MPEC 2024-YC7
21P/Giacobini-Zinner,e,32.0497,195.3297,172.9349,3.491818,0.1510521,0.71105427,13.5406,06/23.0/2025,2000,g  9.0,6.0
# From MPEC 2024-L77
22P/Kopff,e,4.8229,120.1994,162.9778,3.412995,0.1563150,0.55837949,185.6764,06/23.0/2025,2000,g  3.0,10.4
# From MPC 14747
23P/Brorsen-Metcalf,e,19.4672,311.1769,129.9857,16.93915,0.0141373,0.97258443,0.0000,05/31.7773/2059,2000,g 10.0,6.0
# From MPC110085
24P/Schaumasse,e,11.5063,78.3676,58.3992,4.057086,0.1206099,0.70819576,335.9625,06/23.0/2025,2000,g  6.5,14.0
# From NK 378
25D/Neujmin 2,e,2.8087,279.9710,244.7981,3.221417,0.1704644,0.55040978,7.2592,06/23.0/2025,2000,g 12.5,6.0
# From MPEC 2024-TP3
26P/Grigg-Skjellerup,e,22.4371,211.5316,2.1236,3.014570,0.1883068,0.64060590,102.7563,06/23.0/2025,2000,g 12.0,16.0
# From MPC 78188
27P/Crommelin,e,29.4342,250.7047,195.8480,9.179083,0.0354409,0.91964565,179.7970,06/23.0/2025,2000,g 12.0,8.0
# From MPEC 2025-A40
28P/Neujmin,e,14.2927,346.4113,347.4496,6.980691,0.0534388,0.77267587,83.6734,06/23.0/2025,2000,g  8.5,6.0
# From MPC184415
29P/Schwassmann-Wachmann,e,9.3558,312.4037,52.0770,6.056822,0.0661206,0.04327960,148.3933,06/23.0/2025,2000,g  4.0,4.0
# From MPC184416
30P/Reinmuth,e,8.0533,117.2328,9.5149,3.735372,0.1365222,0.51440000,42.2902,06/23.0/2025,2000,g  9.5,6.0
# From MPEC 2025-A40
31P/Schwassmann-Wachmann,e,4.5497,114.1132,17.9128,4.230943,0.1132526,0.19343135,246.7667,06/23.0/2025,2000,g  5.0,8.0
# From MPC184416
32P/ComasSola,e,9.9200,54.5324,54.7076,4.554084,0.1014151,0.55530673,43.4371,06/23.0/2025,2000,g  6.5,8.0
# From MPC184416
33P/Daniel,e,22.2940,66.2798,20.2555,4.091667,0.1190841,0.45194005,26.6888,06/23.0/2025,2000,g 10.0,12.0
# From  9, 314
34D/Gale,e,10.5825,57.8616,218.0360,5.017568,0.0876929,0.75809417,322.4487,06/23.0/2025,2000,g  9.0,4.0
# From  15, 452
35P/Herschel-Rigollet,e,64.523,356.179,29.220,28.5383,0.006465,0.9742922,0.000,04/09.6187/2092,2000,g  9.0,4.0
# From MPEC 2023-RF3
36P/Whipple,e,9.9458,181.8265,201.2043,4.141268,0.1169510,0.26812705,216.0337,06/23.0/2025,2000,g  8.5,6.0
# From MPC184416
37P/Forbes,e,8.9478,314.5484,330.0623,3.461803,0.1530208,0.53265644,38.9841,06/23.0/2025,2000,g 10.5,4.8
# From MPEC 2024-YC7
38P/Stephan-Oterma,e,18.4142,77.8612,359.5923,11.26479,0.0260687,0.85977244,62.9074,06/23.0/2025,2000,g  3.5,12.0
# From MPEC 2024-AF0
39P/Oterma,e,1.7249,289.1758,115.2008,6.960860,0.0536673,0.17181454,35.0087,06/23.0/2025,2000,g  7.0,6.0
# From MPC184416
40P/Vaisala,e,11.6403,128.8983,52.0397,4.949232,0.0895153,0.63152894,347.2966,06/23.0/2025,2000,g  5.5,12.0
# From MPEC 2023-SQ0
41P/Tuttle-Giacobini-Kresak,e,9.2162,140.9720,62.2161,3.087771,0.1816504,0.65964696,184.1400,06/23.0/2025,2000,g 10.0,16.0
# From MPC184416
42P/Neujmin,e,3.9883,150.1596,147.1325,4.879475,0.0914417,0.58406813,341.1663,06/23.0/2025,2000,g 13.0,6.0
# From MPC184416
43P/Wolf-Harrington,e,9.3317,243.9929,223.8033,4.333173,0.1092685,0.43623616,355.3359,06/23.0/2025,2000,g  8.0,6.0
# From MPEC 2024-F34
44P/Reinmuth,e,5.8959,286.4217,57.9926,3.687776,0.1391737,0.42674026,161.1555,06/23.0/2025,2000,g  8.3,6.0
# From MPEC 2022-O01
45P/Honda-Mrkos-Pajdusakova,e,4.3240,87.6863,327.9502,3.056815,0.1844168,0.81761111,212.5593,06/23.0/2025,2000,g 13.5,8.0
# From MPEC 2024-F91
46P/Wirtanen,e,11.7497,82.1618,356.3425,3.092047,0.1812737,0.65871811,72.4921,06/23.0/2025,2000,g 14.0,6.0
# From MPC184416
47P/Ashbrook-Jackson,e,13.0385,356.8823,357.9110,4.117656,0.1179584,0.31818643,345.0219,06/23.0/2025,2000,g  1.0,11.2
# From MPC184416
48P/Johnson,e,12.2017,110.0640,216.7745,3.499126,0.1505791,0.42654471,16.9188,06/23.0/2025,2000,g 10.0,6.0
# From MPC184416
49P/Arend-Rigaux,e,19.0597,118.7911,332.9263,3.569498,0.1461482,0.59901101,10.7265,06/23.0/2025,2000,g 11.3,4.4
# From MPC184417
50P/Arend,e,19.1007,355.1446,49.3115,4.086513,0.1193094,0.52969318,48.4844,06/23.0/2025,2000,g  9.5,6.0
# From MPEC 2023-J29
51P/Harrington,e,5.4264,83.6587,269.2328,3.705372,0.1381836,0.54277506,137.6783,06/23.0/2025,2000,g 10.0,8.0
# From NK 3014
51P-A/Harrington,e,5.4262,269.2293,83.6423,3.706613,0.1381142,0.54296862,137.2528,06/23.0/2025,2000,g 10.0,8.0
# From MPEC 2023-J29
51P-D/Harrington,e,5.4269,83.6470,269.2509,3.705724,0.1381639,0.54290513,137.6002,06/23.0/2025,2000,g 16.0,8.0
# From MPEC 2023-XP6
52P/Harrington-Abell,e,10.2380,336.7536,139.6165,3.862073,0.1298594,0.54110331,176.0538,06/23.0/2025,2000,g 13.5,6.0
# From MPEC 2023-TM6
53P/VanBiesbroeck,e,6.6025,148.8519,134.3383,5.439434,0.0776915,0.54966122,260.3874,06/23.0/2025,2000,g  7.7,4.8
# From MPEC 2024-YC7
54P/deVico-Swift-NEAT,e,6.0620,358.7409,2.1012,3.791317,0.1335116,0.42711495,38.9615,06/23.0/2025,2000,g 10.0,6.0
# From MPC 31070
55P/Tempel-Tuttle,e,162.4836,235.4113,172.4940,10.33715,0.0296553,0.90573560,295.9568,06/23.0/2025,2000,g  9.0,4.0
# From MPEC 2023-TM6
56P/Slaughter-Burnham,e,8.1549,345.8880,44.2201,5.063212,0.0865097,0.50834466,281.3223,06/23.0/2025,2000,g  8.5,6.0
# From MPEC 2024-DC6
57P/duToit-Neujmin-Delporte,e,2.8533,188.7395,115.0599,3.440856,0.1544203,0.50132401,207.7844,06/23.0/2025,2000,g 12.5,6.0
# From MPEC 2024-A43
58P/Jackson-Neujmin,e,13.0875,159.0398,200.5827,4.091219,0.1191036,0.66165200,220.7304,06/23.0/2025,2000,g 15.5,6.0
# From MPEC 2023-A50
59P/Kearns-Kwee,e,9.3559,312.7285,127.6698,4.479103,0.1039723,0.47703120,256.3955,06/23.0/2025,2000,g  7.0,6.0
# From MPC182887
60P/Tsuchinshan,e,3.5799,267.3963,216.9148,3.530164,0.1485976,0.53381679,355.8970,06/23.0/2025,2000,g 11.5,6.0
# From MPEC 2024-JU4
61P/Shajn-Schaldach,e,5.9968,162.9612,221.7089,3.690580,0.1390152,0.42306133,135.3452,06/23.0/2025,2000,g  6.0,10.0
# From MPC182887
62P/Tsuchinshan,e,4.7369,68.6655,47.3318,3.371096,0.1592382,0.62471250,86.9118,06/23.0/2025,2000,g  8.0,10.0
# From MPC 84320
63P/Wild,e,19.6193,357.7646,168.7936,5.651532,0.0733592,0.65079977,332.2506,06/23.0/2025,2000,g 10.5,6.0
# From MPEC 2024-A43
64P/Swift-Gehrels,e,8.9539,299.7721,97.3355,4.452231,0.1049150,0.68842823,253.8228,06/23.0/2025,2000,g  9.5,12.0
# From MPC184417
65P/Gunn,e,9.1753,61.9756,213.6742,3.892024,0.1283633,0.24814047,0.8377,06/23.0/2025,2000,g  5.0,6.0
# From MPEC 2021-F20
66P/duToit,e,18.6451,21.8380,257.3834,6.070431,0.0658984,0.78496396,171.2277,06/23.0/2025,2000,g 15.0,4.0
# From MPEC 2024-C04
67P/Churyumov-Gerasimenko,e,3.8684,36.3142,22.2118,3.458618,0.1532323,0.64983367,203.5345,06/23.0/2025,2000,g 11.0,4.0
# From MPEC 2023-HD1
68P/Klemola,e,11.0993,175.0917,153.2214,4.963594,0.0891271,0.63576630,183.2363,06/23.0/2025,2000,g 12.6,4.0
# From MPEC 2024-C04
69P/Taylor,e,22.0613,104.8080,343.4985,3.880364,0.1289423,0.41469204,294.5811,06/23.0/2025,2000,g  9.5,12.0
# From MPEC 2023-VM5
70P/Kojima,e,6.6030,119.2353,1.7934,3.675409,0.1398768,0.45480195,185.5942,06/23.0/2025,2000,g 11.0,6.0
# From MPEC 2024-YC7
71P/Clark,e,9.2959,59.2341,210.4152,3.175040,0.1742129,0.48698225,153.9211,06/23.0/2025,2000,g  9.8,6.0
# From MPEC 2023-VM5
72P/Denning-Fujikawa,e,10.9438,26.7211,346.7421,4.307611,0.1102426,0.81833223,81.4062,06/23.0/2025,2000,g 17.5,10.0
# From MPEC 2023-RF3
73P/Schwassmann-Wachmann,e,7.2811,59.4777,207.9550,3.029089,0.1869545,0.71805683,191.2926,06/23.0/2025,2000,g 11.5,6.0
# From NK 1613
73P-B/Schwassmann-Wachmann B,e,10.6689,192.8488,75.4935,3.073123,0.1829508,0.69617079,187.4222,06/23.0/2025,2000,g  9.0,4.0
# From NK 2710
73P-C/Schwassmann-Wachmann,e,10.6811,193.0245,75.3543,3.071684,0.1830793,0.69599479,188.2821,06/23.0/2025,2000,g  9.0,4.0
# From NK 934
73P-E/Schwassmann-Wachmann,e,10.6373,192.5343,75.7748,3.077164,0.1825904,0.69648287,185.4811,06/23.0/2025,2000,g  9.0,4.0
# From MPC 56796
73P-G/Schwassmann-Wachmann,e,11.388,69.909,198.772,3.06230,0.183922,0.6933024,359.982,06/08.0/2006,2000,g  9.0,4.0
# From MPC 56796
73P-H/Schwassmann-Wachmann,e,11.389,69.903,198.778,3.06223,0.183927,0.6933024,359.948,06/08.0/2006,2000,g  9.0,4.0
# From MPC 56796
73P-J/Schwassmann-Wachmann,e,11.386,69.983,198.673,3.06380,0.183786,0.6933024,359.974,06/08.0/2006,2000,g  9.0,4.0
# From MPC 56797
73P-K/Schwassmann-Wachmann,e,11.390,69.881,198.809,3.06176,0.183970,0.6933024,359.959,06/08.0/2006,2000,g  9.0,4.0
